NORAD_CAT_ID,OBJECT_NAME,OBJECT_TYPE,EPOCH,MEAN_MOTION,ECCENTRICITY,INCLINATION,RA_OF_ASC_NODE,ARG_OF_PERICENTER,MEAN_ANOMALY,BSTAR,MEAN_MOTION_DOT,MEAN_MOTION_DDOT,TLE_LINE0,TLE_LINE1,TLE_LINE2,SEMIMAJOR_AXIS,PERIOD,APOGEE,PERIGEE,DECAYED
52635.0,STARLINK-3978,PAYLOAD,2024-01-07 20:18:06,15.08842656,0.0001468,53.216,213.8477,77.5436,282.572,5.4139e-05,5.74e-06,0.0,0 STARLINK-3978,1 52635U 22052AP  24007.84590807  .00000574  00000-0  54139-4 0  9998,2 52635  53.2160 213.8477 0001468  77.5436 282.5720 15.08842656 91969,6917.872,95.437,540.753,538.722,0.0
52635.0,STARLINK-3978,PAYLOAD,2024-01-07 23:28:52,15.08842894,0.0001465,53.2159,213.2528,78.2397,281.8759,5.3803e-05,5.68e-06,0.0,0 STARLINK-3978,1 52635U 22052AP  24007.97838747  .00000568  00000-0  53803-4 0  9990,2 52635  53.2159 213.2528 0001465  78.2397 281.8759 15.08842894 91619,6917.872,95.437,540.75,538.723,0.0
52635.0,STARLINK-3978,PAYLOAD,2024-01-08 18:33:30,15.08838551,0.0001422,53.2157,209.6836,87.0607,273.0548,8.6627e-05,1.091e-05,0.0,0 STARLINK-3978,1 52635U 22052AP  24008.77326949  .00001091  00000-0  86627-4 0  9997,2 52635  53.2157 209.6836 0001422  87.0607 273.0548 15.08838551 91730,6917.885,95.438,540.734,538.766,0.0
52635.0,STARLINK-3978,PAYLOAD,2024-01-09 13:38:08,15.08840852,0.0001434,53.2158,206.1148,87.1252,272.9905,4.0526e-05,3.57e-06,0.0,0 STARLINK-3978,1 52635U 22052AP  24009.56815034  .00000357  00000-0  40526-4 0  9995,2 52635  53.2158 206.1148 0001434  87.1252 272.9905 15.08840852 91854,6917.878,95.438,540.735,538.751,0.0
52635.0,STARLINK-3978,PAYLOAD,2024-01-09 18:24:17,15.08840611,0.0001406,53.2157,205.2225,91.8047,268.3106,3.1998e-05,2.21e-06,0.0,0 STARLINK-3978,1 52635U 22052AP  24009.76687020  .00000221  00000-0  31998-4 0  9992,2 52635  53.2157 205.2225 0001406  91.8047 268.3106 15.08840611 91880,6917.879,95.438,540.716,538.771,0.0
52635.0,STARLINK-3978,PAYLOAD,2024-01-10 18:15:03,15.08849535,0.0001262,53.2155,200.7617,123.5886,236.5227,0.00012003,1.623e-05,0.0,0 STARLINK-3978,1 52635U 22052AP  24010.76045449  .00001623  00000-0  12003-3 0  9999,2 52635  53.2155 200.7617 0001262 123.5886 236.5227 15.08849535 92401,6917.851,95.437,540.589,538.843,0.0
52635.0,STARLINK-3978,PAYLOAD,2024-01-10 19:50:27,15.08835766,0.0001232,53.2157,200.4643,87.3933,272.72,1.891e-06,-2.58e-06,0.0,0 STARLINK-3978,1 52635U 22052AP  24010.82670700 -.00000258  00000-0  18910-5 0  9999,2 52635  53.2157 200.4643 0001232  87.3933 272.7200 15.08835766 92411,6917.893,95.438,540.611,538.906,0.0
52635.0,STARLINK-3978,PAYLOAD,2024-01-11 11:44:19,15.08833869,0.0001159,53.2152,197.4921,82.7838,277.3285,-2.9206e-05,-7.53e-06,0.0,0 STARLINK-3978,1 52635U 22052AP  24011.48911087 -.00000753  00000-0 -29206-4 0  9998,2 52635  53.2152 197.4921 0001159  82.7838 277.3285 15.08833869 92147,6917.899,95.438,540.566,538.962,0.0
52635.0,STARLINK-3978,PAYLOAD,2024-01-11 21:16:36,15.08861833,0.000103,53.2156,195.7068,131.0835,229.0246,-0.00025956,-4.419e-05,0.0,0 STARLINK-3978,1 52635U 22052AP  24011.88653707 -.00004419  00000-0 -25956-3 0  9994,2 52635  53.2156 195.7068 0001030 131.0835 229.0246 15.08861833 92207,6917.814,95.436,540.391,538.966,0.0
52635.0,STARLINK-3978,PAYLOAD,2024-01-12 11:35:06,15.08824129,0.0001272,53.2152,193.0307,100.5993,259.5142,5.8514e-05,6.43e-06,0.0,0 STARLINK-3978,1 52635U 22052AP  24012.48271313  .00000643  00000-0  58514-4 0  9990,2 52635  53.2152 193.0307 0001272 100.5993 259.5142 15.08824129 92664,6917.929,95.439,540.674,538.914,0.0
52635.0,STARLINK-3978,PAYLOAD,2024-01-12 19:32:02,15.08826911,0.000126,53.2154,191.5438,102.6221,257.4912,7.2628e-05,8.68e-06,0.0,0 STARLINK-3978,1 52635U 22052AP  24012.81391416  .00000868  00000-0  72628-4 0  9995,2 52635  53.2154 191.5438 0001260 102.6221 257.4912 15.08826911 92346,6917.92,95.438,540.657,538.914,0.0
52635.0,STARLINK-3978,PAYLOAD,2024-01-13 11:25:53,15.08836013,0.0001264,53.2154,188.5697,102.6999,257.4135,5.8369e-05,6.41e-06,0.0,0 STARLINK-3978,1 52635U 22052AP  24013.47631353  .00000641  00000-0  58369-4 0  9990,2 52635  53.2154 188.5697 0001264 102.6999 257.4135 15.08836013 92818,6917.893,95.438,540.632,538.883,0.0
52635.0,STARLINK-3978,PAYLOAD,2024-01-14 11:16:40,15.08835363,0.0001279,53.2156,184.1108,84.6161,275.4977,0.00010531,1.388e-05,0.0,0 STARLINK-3978,1 52635U 22052AP  24014.46991727  .00001388  00000-0  10531-3 0  9991,2 52635  53.2156 184.1108 0001279  84.6161 275.4977 15.08835363 92591,6917.895,95.438,540.644,538.875,0.0
52635.0,STARLINK-3978,PAYLOAD,2024-01-14 17:38:13,15.08838587,0.0001278,53.2156,182.9214,85.2243,274.8895,0.00012959,1.775e-05,0.0,0 STARLINK-3978,1 52635U 22052AP  24014.73487584  .00001775  00000-0  12959-3 0  9998,2 52635  53.2156 182.9214 0001278  85.2243 274.8895 15.08838587 93002,6917.885,95.438,540.634,538.866,0.0
52635.0,STARLINK-3978,PAYLOAD,2024-01-15 14:18:13,15.08843386,0.0001415,53.2167,179.0572,91.8935,268.222,9.3077e-05,1.194e-05,0.0,0 STARLINK-3978,1 52635U 22052AP  24015.59599424  .00001194  00000-0  93077-4 0  9996,2 52635  53.2167 179.0572 0001415  91.8935 268.2220 15.08843386 92766,6917.87,95.437,540.714,538.756,0.0
52635.0,STARLINK-3978,PAYLOAD,2024-01-15 17:29:00,15.08845447,0.0001491,53.2174,178.4626,95.2346,264.8816,0.00010553,1.392e-05,0.0,0 STARLINK-3978,1 52635U 22052AP  24015.72847240  .00001392  00000-0  10553-3 0  9990,2 52635  53.2174 178.4626 0001491  95.2346 264.8816 15.08845447 92780,6917.864,95.437,540.76,538.697,0.0
52635.0,STARLINK-3978,PAYLOAD,2024-01-16 10:58:15,15.08838491,0.0001639,53.2183,175.1923,91.8944,268.2236,5.3168e-05,5.58e-06,0.0,0 STARLINK-3978,1 52635U 22052AP  24016.45711882  .00000558  00000-0  53168-4 0  9996,2 52635  53.2183 175.1923 0001639  91.8944 268.2236 15.08838491 93263,6917.885,95.438,540.884,538.616,0.0
52635.0,STARLINK-3978,PAYLOAD,2024-01-16 14:09:01,15.0883848,0.0001601,53.2181,174.5974,97.1042,263.0132,4.6264e-05,4.48e-06,0.0,0 STARLINK-3978,1 52635U 22052AP  24016.58959839  .00000448  00000-0  46264-4 0  9993,2 52635  53.2181 174.5974 0001601  97.1042 263.0132 15.08838480 92914,6917.885,95.438,540.858,538.642,0.0
52635.0,STARLINK-3978,PAYLOAD,2024-01-16 15:44:24,15.08838559,0.0001595,53.2182,174.3001,97.3112,262.8062,4.3919e-05,4.11e-06,0.0,0 STARLINK-3978,1 52635U 22052AP  24016.65583831  .00000411  00000-0  43919-4 0  9990,2 52635  53.2182 174.3001 0001595  97.3112 262.8062 15.08838559 92923,6917.885,95.438,540.853,538.646,0.0
52635.0,STARLINK-3978,PAYLOAD,2024-01-16 22:05:56,15.08844694,0.0001255,53.2154,173.1072,88.2207,271.8929,7.3526e-05,8.83e-06,0.0,0 STARLINK-3978,1 52635U 22052AP  24016.92079272  .00000883  00000-0  73526-4 0  9999,2 52635  53.2154 173.1072 0001255  88.2207 271.8929 15.08844694 93339,6917.866,95.437,540.599,538.863,0.0
52635.0,STARLINK-3978,PAYLOAD,2024-01-17 09:13:38,15.08840246,0.0001577,53.2152,171.0164,131.4694,228.6434,-7.6218e-05,-1.501e-05,0.0,0 STARLINK-3978,1 52635U 22052AP  24017.38447881 -.00001501  00000-0 -76218-4 0  9996,2 52635  53.2152 171.0164 0001577 131.4694 228.6434 15.08840246 93402,6917.88,95.438,540.836,538.654,0.0
52635.0,STARLINK-3978,PAYLOAD,2024-01-17 13:59:48,15.08839098,0.0001309,53.2158,170.1304,91.4168,268.6975,-2.1843e-05,-6.35e-06,0.0,0 STARLINK-3978,1 52635U 22052AP  24017.58320103 -.00000635  00000-0 -21843-4 0  9996,2 52635  53.2158 170.1304 0001309  91.4168 268.6975 15.08839098 93067,6917.883,95.438,540.654,538.843,0.0
52635.0,STARLINK-3978,PAYLOAD,2024-01-17 15:35:11,15.08841371,0.0001296,53.2154,169.8325,99.2708,260.8431,-9.2806e-06,-4.36e-06,0.0,0 STARLINK-3978,1 52635U 22052AP  24017.64943868 -.00000436  00000-0 -92806-5 0  9999,2 52635  53.2154 169.8325 0001296  99.2708 260.8431 15.08841371 93071,6917.876,95.437,540.638,538.845,0.0
52635.0,STARLINK-3978,PAYLOAD,2024-01-18 13:50:35,15.08838006,0.0001279,53.2159,165.6742,74.4507,285.6626,6.6986e-05,7.78e-06,0.0,0 STARLINK-3978,1 52635U 22052AP  24018.57680376  .00000778  00000-0  66986-4 0  9990,2 52635  53.2159 165.6742 0001279  74.4507 285.6626 15.08838006 93214,6917.886,95.438,540.636,538.867,0.0
52635.0,STARLINK-3978,PAYLOAD,2024-01-18 17:01:21,15.08841013,0.0001305,53.2161,165.0795,74.2456,285.868,0.00010295,1.351e-05,0.0,0 STARLINK-3978,1 52635U 22052AP  24018.70928137  .00001351  00000-0  10295-3 0  9994,2 52635  53.2161 165.0795 0001305  74.2456 285.8680 15.08841013 93607,6917.877,95.437,540.645,538.84,0.0
52635.0,STARLINK-3978,PAYLOAD,2024-01-19 08:55:14,15.08815055,0.000139,53.2163,162.1062,71.6236,288.4907,0.0004573,6.993e-05,0.0,0 STARLINK-3978,1 52635U 22052AP  24019.37169398  .00006993  00000-0  45730-3 0  9993,2 52635  53.2163 162.1062 0001390  71.6236 288.4907 15.08815055 93704,6917.957,95.439,540.783,538.86,0.0
52635.0,STARLINK-3978,PAYLOAD,2024-01-19 13:41:22,15.08840055,0.0001382,53.2162,161.2137,65.8568,294.2568,8.6288e-05,1.086e-05,0.0,0 STARLINK-3978,1 52635U 22052AP  24019.57040448  .00001086  00000-0  86288-4 0  9991,2 52635  53.2162 161.2137 0001382  65.8568 294.2568 15.08840055 93368,6917.88,95.438,540.701,538.789,0.0
52635.0,STARLINK-3978,PAYLOAD,2024-01-19 18:27:31,15.08845151,0.000128,53.2162,160.3206,86.9023,273.2116,0.00020967,3.051e-05,0.0,0 STARLINK-3978,1 52635U 22052AP  24019.76911776  .00003051  00000-0  20967-3 0  9998,2 52635  53.2162 160.3206 0001280  86.9023 273.2116 15.08845151 93764,6917.865,95.437,540.615,538.844,0.0
52635.0,STARLINK-3978,PAYLOAD,2024-01-20 08:46:01,15.08827763,0.0001561,53.2165,157.6455,64.9155,295.1999,-3.4365e-05,-8.35e-06,0.0,0 STARLINK-3978,1 52635U 22052AP  24020.36530006 -.00000835  00000-0 -34365-4 0  9996,2 52635  53.2165 157.6455 0001561  64.9155 295.1999 15.08827763 93857,6917.918,95.438,540.863,538.703,0.0
52635.0,STARLINK-3978,PAYLOAD,2024-01-20 15:07:33,15.08832691,0.0001594,53.2154,156.4522,129.2483,230.8651,1.4691e-05,-5.4e-07,0.0,0 STARLINK-3978,1 52635U 22052AP  24020.63025392 -.00000054  00000-0  14691-4 0  9995,2 52635  53.2154 156.4522 0001594 129.2483 230.8651 15.08832691 93523,6917.903,95.438,540.87,538.665,0.0
